[{"OBJECT_NAME":"KUIPER-00203","OBJECT_ID":"2026-030K","EPOCH":"2026-03-04T04:00:03.000096","MEAN_MOTION":15.24396171,"ECCENTRICITY":0.0011892,"INCLINATION":51.8811,"RA_OF_ASC_NODE":246.1413,"ARG_OF_PERICENTER":45.0228,"MEAN_ANOMALY":129.7842,"EPHEMERIS_TYPE":0,"CLASSIFICATION_TYPE":"U","NORAD_CAT_ID":67773,"ELEMENT_SET_NO":999,"REV_AT_EPOCH":280,"BSTAR":-0.0014876,"MEAN_MOTION_DOT":-0.00037199,"MEAN_MOTION_DDOT":0},{"OBJECT_NAME":"KUIPER-00205","OBJECT_ID":"2026-030L","EPOCH":"2026-03-04T00:40:16.112928","MEAN_MOTION":15.36111127,"ECCENTRICITY":0.0002598,"INCLINATION":51.8808,"RA_OF_ASC_NODE":246.3732,"ARG_OF_PERICENTER":4.7853,"MEAN_ANOMALY":355.3157,"EPHEMERIS_TYPE":0,"CLASSIFICATION_TYPE":"U","NORAD_CAT_ID":67774,"ELEMENT_SET_NO":999,"REV_AT_EPOCH":422,"BSTAR":0.00096575,"MEAN_MOTION_DOT":0.0003427,"MEAN_MOTION_DDOT":0},{"OBJECT_NAME":"KUIPER-00208","OBJECT_ID":"2026-030M","EPOCH":"2026-03-03T23:57:36.784224","MEAN_MOTION":15.32722477,"ECCENTRICITY":0.0013955,"INCLINATION":51.8821,"RA_OF_ASC_NODE":246.9204,"ARG_OF_PERICENTER":45.8139,"MEAN_ANOMALY":314.399,"EPHEMERIS_TYPE":0,"CLASSIFICATION_TYPE":"U","NORAD_CAT_ID":67775,"ELEMENT_SET_NO":999,"REV_AT_EPOCH":421,"BSTAR":-0.00065526,"MEAN_MOTION_DOT":-0.00021402,"MEAN_MOTION_DDOT":0},{"OBJECT_NAME":"KUIPER-00209","OBJECT_ID":"2026-030N","EPOCH":"2026-03-04T00:03:07.858656","MEAN_MOTION":15.31309371,"ECCENTRICITY":0.0012972,"INCLINATION":51.8812,"RA_OF_ASC_NODE":246.9431,"ARG_OF_PERICENTER":49.4583,"MEAN_ANOMALY":310.7529,"EPHEMERIS_TYPE":0,"CLASSIFICATION_TYPE":"U","NORAD_CAT_ID":67776,"ELEMENT_SET_NO":999,"REV_AT_EPOCH":421,"BSTAR":0.00044442,"MEAN_MOTION_DOT":0.00013323,"MEAN_MOTION_DDOT":0},{"OBJECT_NAME":"KUIPER-00213","OBJECT_ID":"2026-030P","EPOCH":"2026-03-04T01:32:30.507072","MEAN_MOTION":15.32509291,"ECCENTRICITY":0.0015174,"INCLINATION":51.8791,"RA_OF_ASC_NODE":246.6037,"ARG_OF_PERICENTER":47.7343,"MEAN_ANOMALY":312.4926,"EPHEMERIS_TYPE":0,"CLASSIFICATION_TYPE":"U","NORAD_CAT_ID":67777,"ELEMENT_SET_NO":999,"REV_AT_EPOCH":422,"BSTAR":0.0013733,"MEAN_MOTION_DOT":0.0004378,"MEAN_MOTION_DDOT":0},{"OBJECT_NAME":"KUIPER-00214","OBJECT_ID":"2026-030Q","EPOCH":"2026-03-04T00:31:33.829248","MEAN_MOTION":15.36535174,"ECCENTRICITY":8.5e-5,"INCLINATION":51.884,"RA_OF_ASC_NODE":246.3407,"ARG_OF_PERICENTER":206.2102,"MEAN_ANOMALY":153.8841,"EPHEMERIS_TYPE":0,"CLASSIFICATION_TYPE":"U","NORAD_CAT_ID":67778,"ELEMENT_SET_NO":999,"REV_AT_EPOCH":422,"BSTAR":0.0011228,"MEAN_MOTION_DOT":0.0004049,"MEAN_MOTION_DDOT":0},{"OBJECT_NAME":"KUIPER-00215","OBJECT_ID":"2026-030R","EPOCH":"2026-03-03T23:38:57.936192","MEAN_MOTION":15.34195112,"ECCENTRICITY":0.0010097,"INCLINATION":51.8835,"RA_OF_ASC_NODE":246.8397,"ARG_OF_PERICENTER":42.8753,"MEAN_ANOMALY":317.3018,"EPHEMERIS_TYPE":0,"CLASSIFICATION_TYPE":"U","NORAD_CAT_ID":67779,"ELEMENT_SET_NO":999,"REV_AT_EPOCH":421,"BSTAR":0.001231,"MEAN_MOTION_DOT":0.0004127,"MEAN_MOTION_DDOT":0},{"OBJECT_NAME":"KUIPER-00218","OBJECT_ID":"2026-030S","EPOCH":"2026-03-03T23:26:08.824992","MEAN_MOTION":15.34915337,"ECCENTRICITY":0.000655,"INCLINATION":51.883,"RA_OF_ASC_NODE":246.78,"ARG_OF_PERICENTER":33.7669,"MEAN_ANOMALY":326.3733,"EPHEMERIS_TYPE":0,"CLASSIFICATION_TYPE":"U","NORAD_CAT_ID":67780,"ELEMENT_SET_NO":999,"REV_AT_EPOCH":421,"BSTAR":0.0012423,"MEAN_MOTION_DOT":0.00042593,"MEAN_MOTION_DDOT":0},{"OBJECT_NAME":"KUIPER-00220","OBJECT_ID":"2026-030T","EPOCH":"2026-03-03T23:34:22.412640","MEAN_MOTION":15.34491237,"ECCENTRICITY":0.0008265,"INCLINATION":51.8803,"RA_OF_ASC_NODE":246.8105,"ARG_OF_PERICENTER":39.5261,"MEAN_ANOMALY":320.6326,"EPHEMERIS_TYPE":0,"CLASSIFICATION_TYPE":"U","NORAD_CAT_ID":67781,"ELEMENT_SET_NO":999,"REV_AT_EPOCH":421,"BSTAR":0.0011594,"MEAN_MOTION_DOT":0.00039185,"MEAN_MOTION_DDOT":0},{"OBJECT_NAME":"KUIPER-00222","OBJECT_ID":"2026-030U","EPOCH":"2026-03-04T00:03:36.277344","MEAN_MOTION":15.32317149,"ECCENTRICITY":0.0016157,"INCLINATION":51.8795,"RA_OF_ASC_NODE":246.9383,"ARG_OF_PERICENTER":45.1256,"MEAN_ANOMALY":315.1037,"EPHEMERIS_TYPE":0,"CLASSIFICATION_TYPE":"U","NORAD_CAT_ID":67782,"ELEMENT_SET_NO":999,"REV_AT_EPOCH":421,"BSTAR":0.0020244,"MEAN_MOTION_DOT":0.00064532,"MEAN_MOTION_DDOT":0},{"OBJECT_NAME":"KUIPER-00223","OBJECT_ID":"2026-030V","EPOCH":"2026-03-03T23:43:26.954688","MEAN_MOTION":15.33988481,"ECCENTRICITY":0.0012314,"INCLINATION":51.882,"RA_OF_ASC_NODE":246.8565,"ARG_OF_PERICENTER":43.45,"MEAN_ANOMALY":316.7454,"EPHEMERIS_TYPE":0,"CLASSIFICATION_TYPE":"U","NORAD_CAT_ID":67783,"ELEMENT_SET_NO":999,"REV_AT_EPOCH":421,"BSTAR":0.0012052,"MEAN_MOTION_DOT":0.00040157,"MEAN_MOTION_DDOT":0},{"OBJECT_NAME":"KUIPER-00225","OBJECT_ID":"2026-030W","EPOCH":"2026-03-03T23:14:13.742304","MEAN_MOTION":15.3562708,"ECCENTRICITY":0.0003944,"INCLINATION":51.8807,"RA_OF_ASC_NODE":246.7207,"ARG_OF_PERICENTER":24.4994,"MEAN_ANOMALY":335.6178,"EPHEMERIS_TYPE":0,"CLASSIFICATION_TYPE":"U","NORAD_CAT_ID":67784,"ELEMENT_SET_NO":999,"REV_AT_EPOCH":421,"BSTAR":0.00091937,"MEAN_MOTION_DOT":0.00032094,"MEAN_MOTION_DDOT":0},{"OBJECT_NAME":"KUIPER-00226","OBJECT_ID":"2026-030X","EPOCH":"2026-03-04T00:18:21.752064","MEAN_MOTION":15.31342902,"ECCENTRICITY":0.0019587,"INCLINATION":51.8806,"RA_OF_ASC_NODE":247.0057,"ARG_OF_PERICENTER":56.6269,"MEAN_ANOMALY":303.6586,"EPHEMERIS_TYPE":0,"CLASSIFICATION_TYPE":"U","NORAD_CAT_ID":67785,"ELEMENT_SET_NO":999,"REV_AT_EPOCH":421,"BSTAR":0.00085065,"MEAN_MOTION_DOT":0.00025997,"MEAN_MOTION_DDOT":0},{"OBJECT_NAME":"KUIPER-00259","OBJECT_ID":"2026-030Y","EPOCH":"2026-03-03T23:28:56.536032","MEAN_MOTION":15.34812461,"ECCENTRICITY":0.0008216,"INCLINATION":51.8804,"RA_OF_ASC_NODE":246.7862,"ARG_OF_PERICENTER":32.7983,"MEAN_ANOMALY":327.3512,"EPHEMERIS_TYPE":0,"CLASSIFICATION_TYPE":"U","NORAD_CAT_ID":67786,"ELEMENT_SET_NO":999,"REV_AT_EPOCH":421,"BSTAR":0.0011714,"MEAN_MOTION_DOT":0.0004001,"MEAN_MOTION_DDOT":0},{"OBJECT_NAME":"KUIPER-00260","OBJECT_ID":"2026-030Z","EPOCH":"2026-03-04T00:37:37.747776","MEAN_MOTION":15.36201626,"ECCENTRICITY":8.6e-5,"INCLINATION":51.8795,"RA_OF_ASC_NODE":246.36,"ARG_OF_PERICENTER":57.1311,"MEAN_ANOMALY":302.9757,"EPHEMERIS_TYPE":0,"CLASSIFICATION_TYPE":"U","NORAD_CAT_ID":67787,"ELEMENT_SET_NO":999,"REV_AT_EPOCH":413,"BSTAR":0.0013621,"MEAN_MOTION_DOT":0.00048725,"MEAN_MOTION_DDOT":0},{"OBJECT_NAME":"KUIPER-00262","OBJECT_ID":"2026-030AA","EPOCH":"2026-03-04T00:32:58.105536","MEAN_MOTION":15.36509894,"ECCENTRICITY":3.73e-5,"INCLINATION":51.8809,"RA_OF_ASC_NODE":246.3425,"ARG_OF_PERICENTER":140.5415,"MEAN_ANOMALY":219.5598,"EPHEMERIS_TYPE":0,"CLASSIFICATION_TYPE":"U","NORAD_CAT_ID":67788,"ELEMENT_SET_NO":999,"REV_AT_EPOCH":422,"BSTAR":0.0011562,"MEAN_MOTION_DOT":0.0004168,"MEAN_MOTION_DDOT":0},{"OBJECT_NAME":"KUIPER-00266","OBJECT_ID":"2026-030AB","EPOCH":"2026-03-04T00:24:31.039488","MEAN_MOTION":15.30951202,"ECCENTRICITY":0.0023033,"INCLINATION":51.8809,"RA_OF_ASC_NODE":247.0299,"ARG_OF_PERICENTER":56.2581,"MEAN_ANOMALY":304.0593,"EPHEMERIS_TYPE":0,"CLASSIFICATION_TYPE":"U","NORAD_CAT_ID":67789,"ELEMENT_SET_NO":999,"REV_AT_EPOCH":421,"BSTAR":0.00019753,"MEAN_MOTION_DOT":5.669e-5,"MEAN_MOTION_DDOT":0}]
