KUIPER-00203            
1 67773U 26030K   26063.16670139 -.00037199  00000+0 -14876-2 0  9999
2 67773  51.8811 246.1413 0011892  45.0228 129.7842 15.24396171  2801
KUIPER-00205            
1 67774U 26030L   26063.02796427  .00034270  00000+0  96575-3 0  9996
2 67774  51.8808 246.3732 0002598   4.7853 355.3157 15.36111127  4226
KUIPER-00208            
1 67775U 26030M   26062.99834241 -.00021402  00000+0 -65526-3 0  9996
2 67775  51.8821 246.9204 0013955  45.8139 314.3990 15.32722477  4215
KUIPER-00209            
1 67776U 26030N   26063.00217429  .00013323  00000+0  44442-3 0  9998
2 67776  51.8812 246.9431 0012972  49.4583 310.7529 15.31309371  4210
KUIPER-00213            
1 67777U 26030P   26063.06424198  .00043780  00000+0  13733-2 0  9996
2 67777  51.8791 246.6037 0015174  47.7343 312.4926 15.32509291  4223
KUIPER-00214            
1 67778U 26030Q   26063.02191932  .00040490  00000+0  11228-2 0  9992
2 67778  51.8840 246.3407 0000850 206.2102 153.8841 15.36535174  4223
KUIPER-00215            
1 67779U 26030R   26062.98539278  .00041270  00000+0  12310-2 0  9996
2 67779  51.8835 246.8397 0010097  42.8753 317.3018 15.34195112  4215
KUIPER-00218            
1 67780U 26030S   26062.97649103  .00042593  00000+0  12423-2 0  9990
2 67780  51.8830 246.7800 0006550  33.7669 326.3733 15.34915337  4217
KUIPER-00220            
1 67781U 26030T   26062.98220385  .00039185  00000+0  11594-2 0  9990
2 67781  51.8803 246.8105 0008265  39.5261 320.6326 15.34491237  4217
KUIPER-00222            
1 67782U 26030U   26063.00250321  .00064532  00000+0  20244-2 0  9994
2 67782  51.8795 246.9383 0016157  45.1256 315.1037 15.32317149  4218
KUIPER-00223            
1 67783U 26030V   26062.98850642  .00040157  00000+0  12052-2 0  9998
2 67783  51.8820 246.8565 0012314  43.4500 316.7454 15.33988481  4217
KUIPER-00225            
1 67784U 26030W   26062.96821461  .00032094  00000+0  91937-3 0  9995
2 67784  51.8807 246.7207 0003944  24.4994 335.6178 15.35627080  4210
KUIPER-00226            
1 67785U 26030X   26063.01275176  .00025997  00000+0  85065-3 0  9998
2 67785  51.8806 247.0057 0019587  56.6269 303.6586 15.31342902  4210
KUIPER-00259            
1 67786U 26030Y   26062.97843213  .00040010  00000+0  11714-2 0  9998
2 67786  51.8804 246.7862 0008216  32.7983 327.3512 15.34812461  4211
KUIPER-00260            
1 67787U 26030Z   26063.02613134  .00048725  00000+0  13621-2 0  9993
2 67787  51.8795 246.3600 0000860  57.1311 302.9757 15.36201626  4138
KUIPER-00262            
1 67788U 26030AA  26063.02289474  .00041680  00000+0  11562-2 0  9995
2 67788  51.8809 246.3425 0000373 140.5415 219.5598 15.36509894  4225
KUIPER-00266            
1 67789U 26030AB  26063.01702592  .00005669  00000+0  19753-3 0  9994
2 67789  51.8809 247.0299 0023033  56.2581 304.0593 15.30951202  4210
